{
  "type": "FeatureCollection",
  "name": "Odisha_AOI_Districts",
  "features": [
    {
      "type": "Feature",
      "properties": {
        "district_id": "OD_PURI",
        "district_name": "Puri",
        "state": "Odisha",
        "coastal": true,
        "population": 1698733,
        "coastal_length_km": 150.4,
        "baseline_vulnerability": "VERY_HIGH"
      },
      "geometry": {
        "type": "Polygon",
        "coordinates": [
          [
            [85.15, 19.55],
            [85.60, 19.65],
            [85.80, 19.78],
            [86.25, 19.88],
            [86.42, 20.08],
            [86.15, 20.18],
            [85.75, 20.12],
            [85.40, 19.85],
            [85.15, 19.55]
          ]
        ]
      }
    },
    {
      "type": "Feature",
      "properties": {
        "district_id": "OD_JAGATSINGHPUR",
        "district_name": "Jagatsinghpur",
        "state": "Odisha",
        "coastal": true,
        "population": 1136971,
        "coastal_length_km": 67.2,
        "baseline_vulnerability": "EXTREME"
      },
      "geometry": {
        "type": "Polygon",
        "coordinates": [
          [
            [86.10, 20.05],
            [86.35, 20.08],
            [86.72, 20.22],
            [86.75, 20.42],
            [86.40, 20.40],
            [86.15, 20.35],
            [86.05, 20.15],
            [86.10, 20.05]
          ]
        ]
      }
    },
    {
      "type": "Feature",
      "properties": {
        "district_id": "OD_KHURDA",
        "district_name": "Khurda",
        "state": "Odisha",
        "coastal": false,
        "population": 1874685,
        "coastal_length_km": 0.0,
        "baseline_vulnerability": "MODERATE_INLAND"
      },
      "geometry": {
        "type": "Polygon",
        "coordinates": [
          [
            [85.25, 19.80],
            [85.65, 20.05],
            [85.95, 20.18],
            [85.90, 20.45],
            [85.60, 20.42],
            [85.30, 20.25],
            [85.10, 20.00],
            [85.25, 19.80]
          ]
        ]
      }
    }
  ]
}
